COSMOS 2361 [-]         
1 25590U 98076A   23015.57635561  .00000076  00000+0  65791-4 0  9994
2 25590  82.9327  49.3610 0030985 341.3509 129.6387 13.73040447205643
COSMOS 2378 [-]         
1 26818U 01023A   23015.38755874  .00000081  00000+0  70147-4 0  9990
2 26818  82.9264  67.1577 0031598 285.4369  85.0430 13.73984464 83419
COSMOS 2389 [-]         
1 27436U 02026A   23014.77762154  .00000078  00000+0  65010-4 0  9991
2 27436  82.9506  13.6216 0047199 144.6857  28.5844 13.74992650 35463
COSMOS 2398 [-]         
1 27818U 03023A   23015.33873698  .00000091  00000+0  83185-4 0  9990
2 27818  82.9501 335.4893 0031204 180.9638 331.4437 13.72227627982444
COSMOS 2407 [+]         
1 28380U 04028A   23014.24118484  .00000078  00000+0  63717-4 0  9999
2 28380  82.9609 280.3628 0039869 146.3413 327.9672 13.76132597928147
COSMOS 2414 [+]         
1 28521U 05002A   23015.45312180  .00000095  00000+0  66864-4 0  9997
2 28521  82.9491 267.9430 0039051 290.5923  69.1053 13.87679766910949
COSMOS 2429 [-]         
1 32052U 07038A   23014.76991702  .00000057  00000+0  43367-4 0  9999
2 32052  82.9792  46.6160 0039684 123.2077 237.2895 13.74980301770046
COSMOS 2454 [-]         
1 35635U 09039A   23015.44248453  .00000081  00000+0  53162-4 0  9997
2 35635  82.9549 253.9024 0018167 229.7774 303.3531 13.89708482684137
COSMOS 2463 [+]         
1 36519U 10017A   23015.43080751  .00000066  00000+0  56865-4 0  9997
2 36519  82.9600  87.1225 0035955 357.1567  13.7248 13.71490329636848
